KUIPER-00136            
1 65962U 25228R   25306.48400869  .00026378  00000+0  77511-3 0  9991
2 65962  51.8807 214.4959 0006037 210.3744 149.6893 15.34923064  4236
KUIPER-00137            
1 65963U 25228S   25306.35845519  .00026138  00000+0  77856-3 0  9999
2 65963  51.8806 215.1553 0004878 213.7255 146.3421 15.34504287  4210
KUIPER-00138            
1 65964U 25228T   25306.36061444  .00036011  00000+0  10714-2 0  9998
2 65964  51.8794 215.1622 0005905 224.2055 135.8459 15.34368966  4217
KUIPER-00140            
1 65965U 25228U   25306.36144532  .00018789  00000+0  56655-3 0  9996
2 65965  51.8800 215.1718 0005533 227.5833 132.4685 15.34322891  4210
KUIPER-00141            
1 65966U 25228V   25306.48638269  .00024710  00000+0  73122-3 0  9994
2 65966  51.8799 214.5056 0005686 206.8698 153.1994 15.34739880  4239
KUIPER-00146            
1 65967U 25228W   25306.29146358  .00017162  00000+0  51255-3 0  9993
2 65967  51.8804 215.4566 0005669 207.3233 152.7455 15.34691498  4201
KUIPER-00149            
1 65968U 25228X   25306.48448859  .00019166  00000+0  56759-3 0  9996
2 65968  51.8801 214.4948 0005623 204.6765 155.3953 15.34877787  4234
KUIPER-00154            
1 65969U 25228Y   25306.48361436  .00035231  00000+0  10292-2 0  9994
2 65969  51.8799 214.4889 0005774 202.6776 157.3955 15.34957662  4237
